{
  "type": "FeatureCollection",
  "features": [
    {
      "type": "Feature",
      "properties": {
        "norad_id": 41773,
        "name": "SKYSAT-C2",
        "group": "resource",
        "lat": -64.13617616315967,
        "lon": 33.12572147296939,
        "alt_km": 460.4625097580083,
        "timestamp": "2025-12-20T03:42:47.049518+00:00",
        "meta_object_name": "SKYSAT-C2",
        "meta_object_id": "2016-058D",
        "meta_epoch": "2025-12-18T23:52:40.992960",
        "meta_mean_motion": 15.37407901,
        "meta_eccentricity": 0.00035522,
        "meta_inclination": 97.0351,
        "meta_ra_of_asc_node": 17.257,
        "meta_arg_of_pericenter": 17.3368,
        "meta_mean_anomaly": 342.7999,
        "meta_ephemeris_type": 0,
        "meta_classification_type": "U",
        "meta_norad_cat_id": 41773,
        "meta_element_set_no": 999,
        "meta_rev_at_epoch": 51732,
        "meta_bstar": 0.0002611674,
        "meta_mean_motion_dot": 9.504e-05,
        "meta_mean_motion_ddot": 0,
        "tle_line1": "1 41773U 16058D   25352.99491890  .00009504  00000+0  26117-3 0  9995",
        "tle_line2": "2 41773  97.0351  17.2570 0003552  17.3368 342.7999 15.37407901517322"
      },
      "geometry": {
        "type": "Point",
        "coordinates": [
          33.12572147296939,
          -64.13617616315967
        ]
      }
    },
    {
      "type": "Feature",
      "properties": {
        "norad_id": 41774,
        "name": "SKYSAT-C3",
        "group": "resource",
        "lat": -44.887203499809324,
        "lon": 34.51348229598439,
        "alt_km": 440.38402305306045,
        "timestamp": "2025-12-20T03:42:47.049528+00:00",
        "meta_object_name": "SKYSAT-C3",
        "meta_object_id": "2016-058E",
        "meta_epoch": "2025-12-19T20:08:06.036000",
        "meta_mean_motion": 15.44638022,
        "meta_eccentricity": 0.0001919,
        "meta_inclination": 96.9286,
        "meta_ra_of_asc_node": 27.2551,
        "meta_arg_of_pericenter": 108.1196,
        "meta_mean_anomaly": 252.0263,
        "meta_ephemeris_type": 0,
        "meta_classification_type": "U",
        "meta_norad_cat_id": 41774,
        "meta_element_set_no": 999,
        "meta_rev_at_epoch": 51835,
        "meta_bstar": 0.00029927,
        "meta_mean_motion_dot": 0.00013863,
        "meta_mean_motion_ddot": 0,
        "tle_line1": "1 41774U 16058E   25353.83895875  .00013863  00000+0  29927-3 0  9996",
        "tle_line2": "2 41774  96.9286  27.2551 0001919 108.1196 252.0263 15.44638022518350"
      },
      "geometry": {
        "type": "Point",
        "coordinates": [
          34.51348229598439,
          -44.887203499809324
        ]
      }
    },
    {
      "type": "Feature",
      "properties": {
        "norad_id": 41785,
        "name": "ALSAT 1B",
        "group": "resource",
        "lat": 42.01490920946616,
        "lon": -1.4507137894010305,
        "alt_km": 645.1753377301611,
        "timestamp": "2025-12-20T03:42:47.049538+00:00",
        "meta_object_name": "ALSAT 1B",
        "meta_object_id": "2016-059C",
        "meta_epoch": "2025-12-19T20:59:43.927872",
        "meta_mean_motion": 14.72082591,
        "meta_eccentricity": 0.001083,
        "meta_inclination": 97.7808,
        "meta_ra_of_asc_node": 5.3571,
        "meta_arg_of_pericenter": 83.2582,
        "meta_mean_anomaly": 276.9858,
        "meta_ephemeris_type": 0,
        "meta_classification_type": "U",
        "meta_norad_cat_id": 41785,
        "meta_element_set_no": 999,
        "meta_rev_at_epoch": 49419,
        "meta_bstar": 7.4916e-05,
        "meta_mean_motion_dot": 4.24e-06,
        "meta_mean_motion_ddot": 0,
        "tle_line1": "1 41785U 16059C   25353.87481398  .00000424  00000+0  74916-4 0  9992",
        "tle_line2": "2 41785  97.7808   5.3571 0010830  83.2582 276.9858 14.72082591494198"
      },
      "geometry": {
        "type": "Point",
        "coordinates": [
          -1.4507137894010305,
          42.01490920946616
        ]
      }
    },
    {
      "type": "Feature",
      "properties": {
        "norad_id": 41787,
        "name": "PATHFINDER 1",
        "group": "resource",
        "lat": -5.766742364965799,
        "lon": -2.6212365721001905,
        "alt_km": 664.1401781043933,
        "timestamp": "2025-12-20T03:42:47.049548+00:00",
        "meta_object_name": "PATHFINDER 1",
        "meta_object_id": "2016-059E",
        "meta_epoch": "2025-12-19T19:33:23.141952",
        "meta_mean_motion": 14.67332694,
        "meta_eccentricity": 0.0029858,
        "meta_inclination": 97.8135,
        "meta_ra_of_asc_node": 356.2601,
        "meta_arg_of_pericenter": 59.673,
        "meta_mean_anomaly": 300.7423,
        "meta_ephemeris_type": 0,
        "meta_classification_type": "U",
        "meta_norad_cat_id": 41787,
        "meta_element_set_no": 999,
        "meta_rev_at_epoch": 49340,
        "meta_bstar": 0.00010611,
        "meta_mean_motion_dot": 5.56e-06,
        "meta_mean_motion_ddot": 0,
        "tle_line1": "1 41787U 16059E   25353.81485118  .00000556  00000+0  10611-3 0  9999",
        "tle_line2": "2 41787  97.8135 356.2601 0029858  59.6730 300.7423 14.67332694493401"
      },
      "geometry": {
        "type": "Point",
        "coordinates": [
          -2.6212365721001905,
          -5.766742364965799
        ]
      }
    },
    {
      "type": "Feature",
      "properties": {
        "norad_id": 41790,
        "name": "SCATSAT 1",
        "group": "resource",
        "lat": -61.889044518738196,
        "lon": 66.46957460476705,
        "alt_km": 678.4165608327021,
        "timestamp": "2025-12-20T03:42:47.049559+00:00",
        "meta_object_name": "SCATSAT 1",
        "meta_object_id": "2016-059H",
        "meta_epoch": "2025-12-19T15:00:35.016192",
        "meta_mean_motion": 14.7895767,
        "meta_eccentricity": 0.0056438,
        "meta_inclination": 98.1455,
        "meta_ra_of_asc_node": 50.3814,
        "meta_arg_of_pericenter": 106.2754,
        "meta_mean_anomaly": 254.4674,
        "meta_ephemeris_type": 0,
        "meta_classification_type": "U",
        "meta_norad_cat_id": 41790,
        "meta_element_set_no": 999,
        "meta_rev_at_epoch": 7504,
        "meta_bstar": 0.00014584,
        "meta_mean_motion_dot": 1.049e-05,
        "meta_mean_motion_ddot": 0,
        "tle_line1": "1 41790U 16059H   25353.62540528  .00001049  00000+0  14584-3 0  9990",
        "tle_line2": "2 41790  98.1455  50.3814 0056438 106.2754 254.4674 14.78957670 75049"
      },
      "geometry": {
        "type": "Point",
        "coordinates": [
          66.46957460476705,
          -61.889044518738196
        ]
      }
    },
    {
      "type": "Feature",
      "properties": {
        "norad_id": 41875,
        "name": "GOKTURK 1A",
        "group": "resource",
        "lat": -48.55707901815132,
        "lon": -104.24621369579079,
        "alt_km": 691.5987603423782,
        "timestamp": "2025-12-20T03:42:47.049569+00:00",
        "meta_object_name": "GOKTURK 1A",
        "meta_object_id": "2016-073A",
        "meta_epoch": "2025-12-19T19:43:45.518304",
        "meta_mean_motion": 14.6278748,
        "meta_eccentricity": 0.0001253,
        "meta_inclination": 98.1435,
        "meta_ra_of_asc_node": 246.0926,
        "meta_arg_of_pericenter": 81.1844,
        "meta_mean_anomaly": 278.95,
        "meta_ephemeris_type": 0,
        "meta_classification_type": "U",
        "meta_norad_cat_id": 41875,
        "meta_element_set_no": 999,
        "meta_rev_at_epoch": 48260,
        "meta_bstar": 8.7004e-05,
        "meta_mean_motion_dot": 3.97e-06,
        "meta_mean_motion_ddot": 0,
        "tle_line1": "1 41875U 16073A   25353.82205461  .00000397  00000+0  87004-4 0  9999",
        "tle_line2": "2 41875  98.1435 246.0926 0001253  81.1844 278.9500 14.62787480482601"
      },
      "geometry": {
        "type": "Point",
        "coordinates": [
          -104.24621369579079,
          -48.55707901815132
        ]
      }
    },
    {
      "type": "Feature",
      "properties": {
        "norad_id": 41877,
        "name": "RESOURCESAT-2A",
        "group": "resource",
        "lat": -17.575293900539524,
        "lon": 66.77208714633527,
        "alt_km": 825.3451608798841,
        "timestamp": "2025-12-20T03:42:47.049579+00:00",
        "meta_object_name": "RESOURCESAT-2A",
        "meta_object_id": "2016-074A",
        "meta_epoch": "2025-12-19T19:21:02.287872",
        "meta_mean_motion": 14.21602525,
        "meta_eccentricity": 0.0001371,
        "meta_inclination": 98.7755,
        "meta_ra_of_asc_node": 63.6213,
        "meta_arg_of_pericenter": 222.0928,
        "meta_mean_anomaly": 138.0144,
        "meta_ephemeris_type": 0,
        "meta_classification_type": "U",
        "meta_norad_cat_id": 41877,
        "meta_element_set_no": 999,
        "meta_rev_at_epoch": 46881,
        "meta_bstar": 6.0564e-05,
        "meta_mean_motion_dot": 8.8e-07,
        "meta_mean_motion_ddot": 0,
        "tle_line1": "1 41877U 16074A   25353.80627648  .00000088  00000+0  60564-4 0  9994",
        "tle_line2": "2 41877  98.7755  63.6213 0001371 222.0928 138.0144 14.21602525468814"
      },
      "geometry": {
        "type": "Point",
        "coordinates": [
          66.77208714633527,
          -17.575293900539524
        ]
      }
    }
  ]
}